51630,ONEWEB-0431,2022,109.89,148.0,+,87.9,Active,1,LEO,French Guiana,UK,Commercial,Communications,Soyuz,1 51630U 22012J   24078.36648512 -.00000600  00000+0 -17555-2 0  9990,2 51630  87.8980 199.3549 0001137 124.3497 235.7738 13.10376452101840,13.10376452,0.0001137,LEO
51631,ONEWEB-0434,2022,109.9,148.0,+,87.9,Active,1,LEO,French Guiana,UK,Commercial,Communications,Soyuz,1 51631U 22012K   24078.34389348 -.00000005  00000+0 -51256-4 0  9995,2 51631  87.8981 199.3674 0001628  96.2601 263.8712 13.10369501101829,13.10369501,0.0001628,LEO
51632,ONEWEB-0435,2022,109.89,148.0,+,87.9,Active,1,LEO,French Guiana,UK,Commercial,Communications,Soyuz,1 51632U 22012L   24078.35200875 -.00000361  00000+0 -10700-2 0  9996,2 51632  87.8982 199.3561 0001422  96.5262 263.6028 13.10370206101815,13.10370206,0.0001422,LEO
51633,ONEWEB-0436,2022,109.29,148.0,+,87.93,Active,1,LEO,French Guiana,UK,Commercial,Communications,Soyuz,1 51633U 22012M   24078.26712143  .00000092  00000+0  20437-3 0  9991,2 51633  87.9255 169.1752 0001799  98.6028 261.5307 13.17647234105576,13.17647234,0.0001799,LEO
51634,ONEWEB-0438,2022,109.89,148.0,+,87.9,Active,1,LEO,French Guiana,UK,Commercial,Communications,Soyuz,1 51634U 22012N   24078.33578118  .00000408  00000+0  11312-2 0  9994,2 51634  87.8982 199.3599 0001929 100.9676 259.1668 13.10370398101844,13.10370398,0.0001929,LEO
51635,ONEWEB-0439,2022,109.89,148.0,+,87.9,Active,1,LEO,French Guiana,UK,Commercial,Communications,Soyuz,1 51635U 22012P   24078.41538423  .00000250  00000+0  68034-3 0  9998,2 51635  87.8982 199.3283 0001691 104.8245 255.3070 13.10370047101831,13.10370047,0.0001691,LEO
51636,ONEWEB-0442,2022,109.29,148.0,+,87.93,Active,1,LEO,French Guiana,UK,Commercial,Communications,Soyuz,1 51636U 22012Q   24078.25843009  .00000077  00000+0  16625-3 0  9996,2 51636  87.9259 169.2083 0002647 116.2631 243.8773 13.17648782105569,13.17648782,0.0002647,LEO
51637,ONEWEB-0443,2022,109.29,148.0,+,87.93,Active,1,LEO,French Guiana,UK,Commercial,Communications,Soyuz,1 51637U 22012R   24078.27819398 -.00000142  00000+0 -39936-3 0  9998,2 51637  87.9259 169.2102 0001951  90.9402 269.1953 13.17648272105614,13.17648272,0.0001951,LEO
